1 40894U 15047A   25330.19364762  .00001414  00000+0  18180-3 0  9993
2 40894  97.6565   9.8627 0029106  86.2191 274.2350 14.82360012550114
